OBJECT_NAME,OBJECT_ID,EPOCH,MEAN_MOTION,ECCENTRICITY,INCLINATION,RA_OF_ASC_NODE,ARG_OF_PERICENTER,MEAN_ANOMALY,EPHEMERIS_TYPE,CLASSIFICATION_TYPE,NORAD_CAT_ID,ELEMENT_SET_NO,REV_AT_EPOCH,BSTAR,MEAN_MOTION_DOT,MEAN_MOTION_DDOT
SHIJIAN-17 (SJ-17),2016-065A,2026-07-20T19:08:48.266304,0.99868641,.0002108,5.8361,72.1969,41.8203,297.8793,0,U,41838,999,3553,0,.18E-6,0
GOES 16,2016-071A,2026-07-21T05:49:54.769728,1.00271726,.00006703,0.4191,85.4501,73.4244,122.9073,0,U,41866,999,3544,0,-.9E-6,0
WGS F8 (USA 272),2016-075A,2026-07-21T04:13:38.921088,1.00271281,.00001476,0.0199,55.1111,350.6747,106.3794,0,U,41879,999,3516,0,-.202E-5,0
FENGYUN 4A,2016-077A,2026-07-21T06:49:31.072224,1.00265504,.00081479,2.4072,79.8968,159.4928,285.6796,0,U,41882,999,3527,0,-.358E-5,0
ECHOSTAR 19,2016-079A,2026-07-21T02:21:12.938688,1.00272625,.00014385,0.0181,67.0172,49.8608,120.1882,0,U,41893,999,3504,0,-.138E-5,0
JCSAT-110A (JCSAT-15),2016-082A,2026-07-21T06:45:38.943072,1.00270471,.00007003,0.0166,67.3153,54.4763,28.7252,0,U,41903,999,3510,0,-.35E-5,0
STAR ONE D1,2016-082B,2026-07-21T05:44:38.702112,1.00273171,.00020522,0.0093,27.1975,95.7650,178.2147,0,U,41904,999,3511,0,-.21E-5,0
TJS-2,2017-001A,2026-07-21T03:07:54.706656,1.00272361,.00008541,0.9187,84.8790,90.4824,237.0391,0,U,41911,999,3505,0,-.6E-7,0
SBIRS GEO-4 (USA 273),2017-004A,2026-07-21T06:20:26.359872,1.00280264,.00028642,2.3080,44.1433,67.2010,304.6323,0,U,41937,999,3494,0,.127E-5,0
HISPASAT 36W-1,2017-006A,2026-07-21T04:21:18.410976,1.00273866,.00009351,0.0315,234.8904,238.0879,215.2965,0,U,41942,999,3458,0,-.243E-5,0
TELKOM 3S,2017-007A,2026-07-21T06:47:53.727072,1.00268815,.00025917,0.0223,66.4335,55.7548,36.8404,0,U,41944,999,3448,0,0,0
INTELSAT 32E (IS-32E),2017-007B,2026-07-21T06:01:58.130400,1.00270201,.00005691,0.0118,28.5649,15.2902,302.4664,0,U,41945,999,3456,0,-.268E-5,0
ECHOSTAR 23,2017-014A,2026-07-21T06:00:38.849760,1.00271930,.00021223,0.0201,60.5699,56.6533,162.0445,0,U,42070,999,3426,0,-.56E-6,0
WGS F9 (USA 275),2017-016A,2026-07-21T06:10:49.780704,1.00271209,.00003276,0.0165,49.6123,68.0936,262.0543,0,U,42075,999,3423,0,0,0
SES-10,2017-017A,2026-07-21T05:55:13.775808,1.00270171,.00027268,0.0156,47.9696,71.6831,201.2628,0,U,42432,999,3409,0,-.272E-5,0
CHINASAT 16 (SJ-13),2017-018A,2026-07-20T06:48:38.240352,1.00272872,.00049307,0.0865,88.7982,127.9478,294.0130,0,U,42662,999,3408,0,-.354E-5,0
KOREASAT 7,2017-023A,2026-07-21T02:40:38.554176,1.00271747,.00008053,0.0178,10.8570,107.1471,336.9325,0,U,42691,999,3371,0,-.361E-5,0
SGDC,2017-023B,2026-07-20T09:06:50.841504,1.00272748,.00023395,0.0138,23.7584,96.0044,240.2449,0,U,42692,999,3374,0,-.251E-5,0
GSAT-9,2017-024A,2026-07-21T06:42:01.789632,1.00274259,.00022787,0.1000,90.6297,26.3765,19.8395,0,U,42695,999,3364,0,-.286E-5,0
INMARSAT 5-F4,2017-025A,2026-07-21T03:05:02.482944,1.00269702,.00003533,0.0199,57.3752,98.2484,246.0272,0,U,42698,999,3361,0,.76E-6,0
SES-15,2017-026A,2026-07-21T06:41:38.768352,1.00272289,.00010248,0.0290,317.0918,186.3345,126.8704,0,U,42709,999,777,0,.61E-6,0
QZS-2 (MICHIBIKI-2),2017-028A,2026-07-20T11:09:48.084768,1.00275408,.07568495,39.3796,242.6632,269.6615,95.8478,0,U,42738,999,796,0,-.138E-5,0
VIASAT-2,2017-029A,2026-07-21T05:54:21.360384,1.00271019,.00004916,0.0209,299.9104,218.8013,158.9714,0,U,42740,999,3354,0,-.264E-5,0
EUTELSAT 172B,2017-029B,2026-07-21T05:50:32.229312,1.00272716,.00002165,0.0275,123.8931,293.1955,141.5367,0,U,42741,999,3408,0,-.5E-7,0
GSAT-19,2017-031A,2026-07-21T04:45:16.113888,1.00272413,.00063393,0.0535,89.8785,3.2040,325.0498,0,U,42747,999,3348,0,.126E-5,0
ECHOSTAR 21,2017-032A,2026-07-21T06:17:11.671296,1.00272163,.00023905,1.7705,357.9202,111.2600,294.3840,0,U,42749,999,3344,0,.67E-6,0
BULGARIASAT-1,2017-038A,2026-07-21T06:14:49.398144,1.00272575,.00030185,0.0161,49.9495,76.6369,268.0389,0,U,42801,999,3318,0,.12E-6,0
HELLAS-SAT 3,2017-040A,2026-07-21T06:25:25.881024,1.00274443,.00033513,0.0383,34.6466,45.5335,354.2239,0,U,42814,999,3314,0,.153E-5,0
GSAT-17,2017-040B,2026-07-21T03:15:38.965824,1.00271500,.00021329,0.0473,254.9818,22.2431,164.0642,0,U,42815,999,3312,0,-.257E-5,0
INTELSAT 35E (IS-35E),2017-041A,2026-07-21T06:04:27.890976,1.00269751,.00021813,0.0225,57.3062,60.6537,237.6855,0,U,42818,999,3315,0,0,0
COSMOS 2520,2017-046A,2026-07-20T20:00:38.621376,1.00280558,.00007967,0.0407,107.0073,345.1513,191.6974,0,U,42907,999,3273,0,.136E-5,0
