SHIJIAN-17 (SJ-17)      
1 41838U 16065A   26201.79778086  .00000018  00000+0  00000+0 0  9992
2 41838   5.8361  72.1969 0002108  41.8203 297.8793  0.99868641 35534
GOES 16                 
1 41866U 16071A   26202.24299502 -.00000090  00000+0  00000+0 0  9993
2 41866   0.4191  85.4501 0000670  73.4244 122.9073  1.00271726 35448
WGS F8 (USA 272)        
1 41879U 16075A   26202.17614492 -.00000202  00000+0  00000+0 0  9997
2 41879   0.0199  55.1111 0000147 350.6747 106.3794  1.00271281 35165
FENGYUN 4A              
1 41882U 16077A   26202.28438741 -.00000358  00000+0  00000+0 0  9998
2 41882   2.4072  79.8968 0008147 159.4928 285.6796  1.00265504 35278
ECHOSTAR 19             
1 41893U 16079A   26202.09806642 -.00000138  00000+0  00000+0 0  9996
2 41893   0.0181  67.0172 0001438  49.8608 120.1882  1.00272625 35040
JCSAT-110A (JCSAT-15)   
1 41903U 16082A   26202.28170073 -.00000350  00000+0  00000+0 0  9991
2 41903   0.0166  67.3153 0000700  54.4763  28.7252  1.00270471 35100
STAR ONE D1             
1 41904U 16082B   26202.23933683 -.00000210  00000+0  00000+0 0  9996
2 41904   0.0093  27.1975 0002052  95.7650 178.2147  1.00273171 35116
TJS-2                   
1 41911U 17001A   26202.13049429 -.00000006  00000+0  00000+0 0  9994
2 41911   0.9187  84.8790 0000854  90.4824 237.0391  1.00272361 35053
SBIRS GEO-4 (USA 273)   
1 41937U 17004A   26202.26419398  .00000127  00000+0  00000+0 0  9998
2 41937   2.3080  44.1433 0002864  67.2010 304.6323  1.00280264 34948
HISPASAT 36W-1          
1 41942U 17006A   26202.18146309 -.00000243  00000+0  00000+0 0  9996
2 41942   0.0315 234.8904 0000935 238.0879 215.2965  1.00273866 34588
TELKOM 3S               
1 41944U 17007A   26202.28326073  .00000000  00000+0  00000+0 0  9998
2 41944   0.0223  66.4335 0002591  55.7548  36.8404  1.00268815 34484
INTELSAT 32E (IS-32E)   
1 41945U 17007B   26202.25136725 -.00000268  00000+0  00000+0 0  9996
2 41945   0.0118  28.5649 0000569  15.2902 302.4664  1.00270201 34564
ECHOSTAR 23             
1 42070U 17014A   26202.25044965 -.00000056  00000+0  00000+0 0  9993
2 42070   0.0201  60.5699 0002122  56.6533 162.0445  1.00271930 34268
WGS F9 (USA 275)        
1 42075U 17016A   26202.25752061  .00000000  00000+0  00000+0 0  9991
2 42075   0.0165  49.6123 0000327  68.0936 262.0543  1.00271209 34237
SES-10                  
1 42432U 17017A   26202.24668722 -.00000272  00000+0  00000+0 0  9990
2 42432   0.0156  47.9696 0002726  71.6831 201.2628  1.00270171 34099
CHINASAT 16 (SJ-13)     
1 42662U 17018A   26201.28377593 -.00000354  00000+0  00000+0 0  9993
2 42662   0.0865  88.7982 0004930 127.9478 294.0130  1.00272872 34080
KOREASAT 7              
1 42691U 17023A   26202.11155734 -.00000361  00000+0  00000+0 0  9993
2 42691   0.0178  10.8570 0000805 107.1471 336.9325  1.00271747 33719
SGDC                    
1 42692U 17023B   26201.37975511 -.00000251  00000+0  00000+0 0  9992
2 42692   0.0138  23.7584 0002339  96.0044 240.2449  1.00272748 33749
GSAT-9                  
1 42695U 17024A   26202.27918738 -.00000286  00000+0  00000+0 0  9992
2 42695   0.1000  90.6297 0002278  26.3765  19.8395  1.00274259 33641
INMARSAT 5-F4           
1 42698U 17025A   26202.12850096  .00000076  00000+0  00000+0 0  9998
2 42698   0.0199  57.3752 0000353  98.2484 246.0272  1.00269702 33618
SES-15                  
1 42709U 17026A   26202.27892093  .00000061  00000+0  00000+0 0  9995
2 42709   0.0290 317.0918 0001024 186.3345 126.8704  1.00272289  7771
QZS-2 (MICHIBIKI-2)     
1 42738U 17028A   26201.46513987 -.00000138  00000+0  00000+0 0  9997
2 42738  39.3796 242.6632 0756849 269.6615  95.8478  1.00275408  7962
VIASAT-2                
1 42740U 17029A   26202.24608056 -.00000264  00000+0  00000+0 0  9990
2 42740   0.0209 299.9104 0000491 218.8013 158.9714  1.00271019 33542
EUTELSAT 172B           
1 42741U 17029B   26202.24342858 -.00000005  00000+0  00000+0 0  9999
2 42741   0.0275 123.8931 0000216 293.1955 141.5367  1.00272716 34082
GSAT-19                 
1 42747U 17031A   26202.19810317  .00000126  00000+0  00000+0 0  9995
2 42747   0.0535  89.8785 0006339   3.2040 325.0498  1.00272413 33483
ECHOSTAR 21             
1 42749U 17032A   26202.26194064  .00000067  00000+0  00000+0 0  9994
2 42749   1.7705 357.9202 0002390 111.2600 294.3840  1.00272163 33447
BULGARIASAT-1           
1 42801U 17038A   26202.26029396  .00000012  00000+0  00000+0 0  9994
2 42801   0.0161  49.9495 0003018  76.6369 268.0389  1.00272575 33184
HELLAS-SAT 3            
1 42814U 17040A   26202.26766066  .00000153  00000+0  00000+0 0  9999
2 42814   0.0383  34.6466 0003351  45.5335 354.2239  1.00274443 33145
GSAT-17                 
1 42815U 17040B   26202.13586766 -.00000257  00000+0  00000+0 0  9999
2 42815   0.0473 254.9818 0002132  22.2431 164.0642  1.00271500 33123
INTELSAT 35E (IS-35E)   
1 42818U 17041A   26202.25310059  .00000000  00000+0  00000+0 0  9991
2 42818   0.0225  57.3062 0002181  60.6537 237.6855  1.00269751 33155
COSMOS 2520             
1 42907U 17046A   26201.83378034  .00000136  00000+0  00000+0 0  9995
2 42907   0.0407 107.0073 0000796 345.1513 191.6974  1.00280558 32738
